[{"OBJECT_NAME":"OBJECT D","OBJECT_ID":"2024-174D","EPOCH":"2026-03-10T00:15:10.483200","MEAN_MOTION":15.28039787,"ECCENTRICITY":0.00110644,"INCLINATION":97.4441,"RA_OF_ASC_NODE":80.4677,"ARG_OF_PERICENTER":212.9968,"MEAN_ANOMALY":147.0582,"EPHEMERIS_TYPE":0,"CLASSIFICATION_TYPE":"U","NORAD_CAT_ID":61241,"ELEMENT_SET_NO":999,"REV_AT_EPOCH":8076,"BSTAR":0.00036340099,"MEAN_MOTION_DOT":9.884e-5,"MEAN_MOTION_DDOT":0},{"OBJECT_NAME":"STARLINK-32454","OBJECT_ID":"2024-224D","EPOCH":"2026-03-09T22:56:15.709632","MEAN_MOTION":15.27634664,"ECCENTRICITY":0.00010506,"INCLINATION":42.9946,"RA_OF_ASC_NODE":164.1288,"ARG_OF_PERICENTER":319.9086,"MEAN_ANOMALY":40.1688,"EPHEMERIS_TYPE":0,"CLASSIFICATION_TYPE":"U","NORAD_CAT_ID":62142,"ELEMENT_SET_NO":999,"REV_AT_EPOCH":7243,"BSTAR":0.0015060992,"MEAN_MOTION_DOT":0.00041485,"MEAN_MOTION_DDOT":0}]
